{"type": "FeatureCollection", "features": [ {"type": "Feature", "properties": {"norad_id": 34634, "name": "COSMOS 2251 DEB", "group": "cosmos-2251-debris", "lat": -33.819728787521065, "lon": -126.40726007319478, "alt_km": 699.2828923510024, "timestamp": "2025-12-08T17:43:05.332691+00:00", "meta": {"OBJECT_NAME": "COSMOS 2251 DEB", "OBJECT_ID": "1993-036XF", "EPOCH": "2025-12-08T05:27:01.459872", "MEAN_MOTION": 14.55638324, "ECCENTRICITY": 0.00444172, "INCLINATION": 74.0528, "RA_OF_ASC_NODE": 43.5161, "ARG_OF_PERICENTER": 152.2265, "MEAN_ANOMALY": 265.0745, "EPHEMERIS_TYPE": 0, "CLASSIFICATION_TYPE": "U", "NORAD_CAT_ID": 34634, "ELEMENT_SET_NO": 999, "REV_AT_EPOCH": 88716, "BSTAR": 0.0005952305, "MEAN_MOTION_DOT": 2.605e-05, "MEAN_MOTION_DDOT": 0}, "tle": {"line1": "1 34634U 93036XF  25342.22710023  .00002605  00000+0  59523-3 0  9993", "line2": "2 34634  74.0528  43.5161 0044417 152.2265 265.0745 14.55638324887161"}}, "geometry": {"type": "Point", "coordinates": [-126.40726007319478, -33.819728787521065]}}, {"type": "Feature", "properties": {"norad_id": 34635, "name": "COSMOS 2251 DEB", "group": "cosmos-2251-debris", "lat": -68.84319377143038, "lon": -53.88997261672817, "alt_km": 679.8467576573757, "timestamp": "2025-12-08T17:43:05.332701+00:00", "meta": {"OBJECT_NAME": "COSMOS 2251 DEB", "OBJECT_ID": "1993-036XG", "EPOCH": "2025-12-08T02:06:06.797952", "MEAN_MOTION": 14.68160703, "ECCENTRICITY": 0.00290146, "INCLINATION": 74.0459, "RA_OF_ASC_NODE": 79.7048, "ARG_OF_PERICENTER": 150.0135, "MEAN_ANOMALY": 267.9022, "EPHEMERIS_TYPE": 0, "CLASSIFICATION_TYPE": "U", "NORAD_CAT_ID": 34635, "ELEMENT_SET_NO": 999, "REV_AT_EPOCH": 73151, "BSTAR": 0.0017847974, "MEAN_MOTION_DOT": 0.00010317, "MEAN_MOTION_DDOT": 0}, "tle": {"line1": "1 34635U 93036XG  25342.08757868  .00010317  00000+0  17848-2 0  9998", "line2": "2 34635  74.0459  79.7048 0029014 150.0135 267.9022 14.68160703731519"}}, "geometry": {"type": "Point", "coordinates": [-53.88997261672817, -68.84319377143038]}}, {"type": "Feature", "properties": {"norad_id": 34637, "name": "COSMOS 2251 DEB", "group": "cosmos-2251-debris", "lat": -22.41730891708622, "lon": -64.4366051844686, "alt_km": 665.3716649815951, "timestamp": "2025-12-08T17:43:05.332713+00:00", "meta": {"OBJECT_NAME": "COSMOS 2251 DEB", "OBJECT_ID": "1993-036XJ", "EPOCH": "2025-12-08T02:48:09.029088", "MEAN_MOTION": 14.60023586, "ECCENTRICITY": 0.00502484, "INCLINATION": 74.049, "RA_OF_ASC_NODE": 109.9721, "ARG_OF_PERICENTER": 181.6072, "MEAN_ANOMALY": 356.1817, "EPHEMERIS_TYPE": 0, "CLASSIFICATION_TYPE": "U", "NORAD_CAT_ID": 34637, "ELEMENT_SET_NO": 999, "REV_AT_EPOCH": 88459, "BSTAR": 0.0015242607, "MEAN_MOTION_DOT": 7.427e-05, "MEAN_MOTION_DDOT": 0}, "tle": {"line1": "1 34637U 93036XJ  25342.11677117  .00007427  00000+0  15243-2 0  9997", "line2": "2 34637  74.0490 109.9721 0050248 181.6072 356.1817 14.60023586884592"}}, "geometry": {"type": "Point", "coordinates": [-64.4366051844686, -22.41730891708622]}}, {"type": "Feature", "properties": {"norad_id": 34641, "name": "COSMOS 2251 DEB", "group": "cosmos-2251-debris", "lat": -47.488433049346355, "lon": 70.83621686288768, "alt_km": 718.5604897325447, "timestamp": "2025-12-08T17:43:05.332724+00:00", "meta": {"OBJECT_NAME": "COSMOS 2251 DEB", "OBJECT_ID": "1993-036XN", "EPOCH": "2025-12-07T07:21:43.493760", "MEAN_MOTION": 14.51935512, "ECCENTRICITY": 0.00178485, "INCLINATION": 73.8391, "RA_OF_ASC_NODE": 92.0049, "ARG_OF_PERICENTER": 8.6323, "MEAN_ANOMALY": 22.0244, "EPHEMERIS_TYPE": 0, "CLASSIFICATION_TYPE": "U", "NORAD_CAT_ID": 34641, "ELEMENT_SET_NO": 999, "REV_AT_EPOCH": 88177, "BSTAR": 0.0017326288, "MEAN_MOTION_DOT": 6.982e-05, "MEAN_MOTION_DDOT": 0}, "tle": {"line1": "1 34641U 93036XN  25341.30675340  .00006982  00000+0  17326-2 0  9997", "line2": "2 34641  73.8391  92.0049 0017848   8.6323  22.0244 14.51935512881776"}}, "geometry": {"type": "Point", "coordinates": [70.83621686288768, -47.488433049346355]}}, {"type": "Feature", "properties": {"norad_id": 34642, "name": "COSMOS 2251 DEB", "group": "cosmos-2251-debris", "lat": 68.19444110963863, "lon": 32.53260487087214, "alt_km": 893.9180079833122, "timestamp": "2025-12-08T17:43:05.332734+00:00", "meta": {"OBJECT_NAME": "COSMOS 2251 DEB", "OBJECT_ID": "1993-036XP", "EPOCH": "2025-12-08T02:12:01.128672", "MEAN_MOTION": 13.98954393, "ECCENTRICITY": 0.0207595, "INCLINATION": 74.0054, "RA_OF_ASC_NODE": 347.8524, "ARG_OF_PERICENTER": 168.7947, "MEAN_ANOMALY": 253.5493, "EPHEMERIS_TYPE": 0, "CLASSIFICATION_TYPE": "U", "NORAD_CAT_ID": 34642, "ELEMENT_SET_NO": 999, "REV_AT_EPOCH": 85228, "BSTAR": 0.0012762902, "MEAN_MOTION_DOT": 2.194e-05, "MEAN_MOTION_DDOT": 0}, "tle": {"line1": "1 34642U 93036XP  25342.09167973  .00002194  00000+0  12763-2 0  9994", "line2": "2 34642  74.0054 347.8524 0207595 168.7947 253.5493 13.98954393852284"}}, "geometry": {"type": "Point", "coordinates": [32.53260487087214, 68.19444110963863]}}, {"type": "Feature", "properties": {"norad_id": 34671, "name": "COSMOS 2251 DEB", "group": "cosmos-2251-debris", "lat": -19.134390862093717, "lon": -32.27649472721591, "alt_km": 668.2847032459067, "timestamp": "2025-12-08T17:43:05.332745+00:00", "meta": {"OBJECT_NAME": "COSMOS 2251 DEB", "OBJECT_ID": "1993-036XR", "EPOCH": "2025-12-08T04:31:34.506048", "MEAN_MOTION": 14.66800056, "ECCENTRICITY": 0.001179, "INCLINATION": 74.0265, "RA_OF_ASC_NODE": 143.0805, "ARG_OF_PERICENTER": 222.4443, "MEAN_ANOMALY": 316.1323, "EPHEMERIS_TYPE": 0, "CLASSIFICATION_TYPE": "U", "NORAD_CAT_ID": 34671, "ELEMENT_SET_NO": 999, "REV_AT_EPOCH": 88230, "BSTAR": 0.0022268469, "MEAN_MOTION_DOT": 0.00012429, "MEAN_MOTION_DDOT": 0}, "tle": {"line1": "1 34671U 93036XR  25342.18859382  .00012429  00000+0  22268-2 0  9991", "line2": "2 34671  74.0265 143.0805 0011790 222.4443 316.1323 14.66800056882303"}}, "geometry": {"type": "Point", "coordinates": [-32.27649472721591, -19.134390862093717]}}, {"type": "Feature", "properties": {"norad_id": 34672, "name": "COSMOS 2251 DEB", "group": "cosmos-2251-debris", "lat": 72.14517109641577, "lon": 70.22034629513398, "alt_km": 757.9480255052958, "timestamp": "2025-12-08T17:43:05.332755+00:00", "meta": {"OBJECT_NAME": "COSMOS 2251 DEB", "OBJECT_ID": "1993-036XS", "EPOCH": "2025-12-08T07:33:35.281152", "MEAN_MOTION": 14.36398163, "ECCENTRICITY": 0.00235672, "INCLINATION": 74.0335, "RA_OF_ASC_NODE": 313.7193, "ARG_OF_PERICENTER": 26.7043, "MEAN_ANOMALY": 43.2667, "EPHEMERIS_TYPE": 0, "CLASSIFICATION_TYPE": "U", "NORAD_CAT_ID": 34672, "ELEMENT_SET_NO": 999, "REV_AT_EPOCH": 65114, "BSTAR": 0.00050497184, "MEAN_MOTION_DOT": 1.458e-05, "MEAN_MOTION_DDOT": 0}, "tle": {"line1": "1 34672U 93036XS  25342.31499168  .00001458  00000+0  50497-3 0  9995", "line2": "2 34672  74.0335 313.7193 0023567  26.7043  43.2667 14.36398163651147"}}, "geometry": {"type": "Point", "coordinates": [70.22034629513398, 72.14517109641577]}}, {"type": "Feature", "properties": {"norad_id": 34678, "name": "COSMOS 2251 DEB", "group": "cosmos-2251-debris", "lat": 11.201831089652385, "lon": 16.217703697535935, "alt_km": 781.7061421175358, "timestamp": "2025-12-08T17:43:05.332765+00:00", "meta": {"OBJECT_NAME": "COSMOS 2251 DEB", "OBJECT_ID": "1993-036XY", "EPOCH": "2025-12-08T06:29:26.023776", "MEAN_MOTION": 14.30064007, "ECCENTRICITY": 0.0024319, "INCLINATION": 74.038, "RA_OF_ASC_NODE": 13.8185, "ARG_OF_PERICENTER": 64.3846, "MEAN_ANOMALY": 60.1402, "EPHEMERIS_TYPE": 0, "CLASSIFICATION_TYPE": "U", "NORAD_CAT_ID": 34678, "ELEMENT_SET_NO": 999, "REV_AT_EPOCH": 87315, "BSTAR": 5.7808211e-05, "MEAN_MOTION_DOT": 1.24e-06, "MEAN_MOTION_DDOT": 0}, "tle": {"line1": "1 34678U 93036XY  25342.27044009  .00000124  00000+0  57808-4 0  9999", "line2": "2 34678  74.0380  13.8185 0024319  64.3846  60.1402 14.30064007873150"}}, "geometry": {"type": "Point", "coordinates": [16.217703697535935, 11.201831089652385]}}, {"type": "Feature", "properties": {"norad_id": 34680, "name": "COSMOS 2251 DEB", "group": "cosmos-2251-debris", "lat": -33.242212283473414, "lon": -31.69377558632643, "alt_km": 692.5245809530334, "timestamp": "2025-12-08T17:43:05.332776+00:00", "meta": {"OBJECT_NAME": "COSMOS 2251 DEB", "OBJECT_ID": "1993-036YA", "EPOCH": "2025-12-08T04:23:12.952320", "MEAN_MOTION": 14.60542467, "ECCENTRICITY": 0.00069838, "INCLINATION": 74.0428, "RA_OF_ASC_NODE": 138.5571, "ARG_OF_PERICENTER": 234.4579, "MEAN_ANOMALY": 300.8012, "EPHEMERIS_TYPE": 0, "CLASSIFICATION_TYPE": "U", "NORAD_CAT_ID": 34680, "ELEMENT_SET_NO": 999, "REV_AT_EPOCH": 88261, "BSTAR": 0.0015660387, "MEAN_MOTION_DOT": 7.587e-05, "MEAN_MOTION_DDOT": 0}, "tle": {"line1": "1 34680U 93036YA  25342.18278880  .00007587  00000+0  15660-2 0  9996", "line2": "2 34680  74.0428 138.5571 0006983 234.4579 300.8012 14.60542467882616"}}, "geometry": {"type": "Point", "coordinates": [-31.69377558632643, -33.242212283473414]}}, {"type": "Feature", "properties": {"norad_id": 34681, "name": "COSMOS 2251 DEB", "group": "cosmos-2251-debris", "lat": 57.30067455489638, "lon": 91.87482029598051, "alt_km": 623.6470142028647, "timestamp": "2025-12-08T17:43:05.332786+00:00", "meta": {"OBJECT_NAME": "COSMOS 2251 DEB", "OBJECT_ID": "1993-036YB", "EPOCH": "2025-12-08T08:00:48.684384", "MEAN_MOTION": 14.83045006, "ECCENTRICITY": 0.00257048, "INCLINATION": 74.0634, "RA_OF_ASC_NODE": 299.1031, "ARG_OF_PERICENTER": 356.6121, "MEAN_ANOMALY": 124.0599, "EPHEMERIS_TYPE": 0, "CLASSIFICATION_TYPE": "U", "NORAD_CAT_ID": 34681, "ELEMENT_SET_NO": 999, "REV_AT_EPOCH": 89205, "BSTAR": 0.002068167, "MEAN_MOTION_DOT": 0.00016933, "MEAN_MOTION_DDOT": 0}, "tle": {"line1": "1 34681U 93036YB  25342.33389681  .00016933  00000+0  20682-2 0  9991", "line2": "2 34681  74.0634 299.1031 0025704 356.6121 124.0599 14.83045006892050"}}, "geometry": {"type": "Point", "coordinates": [91.87482029598051, 57.30067455489638]}}]}